{
  "type": "FeatureCollection",
  "features": [
    {
      "type": "Feature",
      "properties": {
        "norad_id": 41581,
        "name": "INTELSAT 31 (IS-31)",
        "group": "intelsat",
        "lat": -0.004660046162084374,
        "lon": 144.5459469639451,
        "alt_km": 35781.79211578834,
        "timestamp": "2025-12-22T09:53:37.074240+00:00",
        "meta_object_name": "INTELSAT 31 (IS-31)",
        "meta_object_id": "2016-035A",
        "meta_epoch": "2025-12-22T00:43:42.862944",
        "meta_mean_motion": 1.00271013,
        "meta_eccentricity": 0.0001962,
        "meta_inclination": 0.0321,
        "meta_ra_of_asc_node": 262.8183,
        "meta_arg_of_pericenter": 298.2424,
        "meta_mean_anomaly": 165.6602,
        "meta_ephemeris_type": 0,
        "meta_classification_type": "U",
        "meta_norad_cat_id": 41581,
        "meta_element_set_no": 999,
        "meta_rev_at_epoch": 3490,
        "meta_bstar": 0,
        "meta_mean_motion_dot": -1.29e-06,
        "meta_mean_motion_ddot": 0,
        "tle_line1": "1 41581U 16035A   25356.03035721 -.00000129  00000+0  00000+0 0  9997",
        "tle_line2": "2 41581   0.0321 262.8183 0001962 298.2424 165.6602  1.00271013 34903"
      },
      "geometry": {
        "type": "Point",
        "coordinates": [
          144.5459469639451,
          -0.004660046162084374
        ]
      }
    },
    {
      "type": "Feature",
      "properties": {
        "norad_id": 41747,
        "name": "INTELSAT 36 (IS-36)",
        "group": "intelsat",
        "lat": -0.028789581491726685,
        "lon": -51.89316786957783,
        "alt_km": 35782.376527492255,
        "timestamp": "2025-12-22T09:53:37.074251+00:00",
        "meta_object_name": "INTELSAT 36 (IS-36)",
        "meta_object_id": "2016-053A",
        "meta_epoch": "2025-12-22T03:13:12.764064",
        "meta_mean_motion": 1.00270934,
        "meta_eccentricity": 9.84e-05,
        "meta_inclination": 0.0105,
        "meta_ra_of_asc_node": 357.6786,
        "meta_arg_of_pericenter": 328.626,
        "meta_mean_anomaly": 241.4387,
        "meta_ephemeris_type": 0,
        "meta_classification_type": "U",
        "meta_norad_cat_id": 41747,
        "meta_element_set_no": 999,
        "meta_rev_at_epoch": 3417,
        "meta_bstar": 0,
        "meta_mean_motion_dot": -2e-08,
        "meta_mean_motion_ddot": 0,
        "tle_line1": "1 41747U 16053A   25356.13417551 -.00000002  00000+0  00000+0 0  9997",
        "tle_line2": "2 41747   0.0105 357.6786 0000984 328.6260 241.4387  1.00270934 34171"
      },
      "geometry": {
        "type": "Point",
        "coordinates": [
          -51.89316786957783,
          -0.028789581491726685
        ]
      }
    },
    {
      "type": "Feature",
      "properties": {
        "norad_id": 41945,
        "name": "INTELSAT 32E (IS-32E)",
        "group": "intelsat",
        "lat": 0.01664877462811345,
        "lon": -163.56394512309996,
        "alt_km": 35790.4593096603,
        "timestamp": "2025-12-22T09:53:37.074263+00:00",
        "meta_object_name": "INTELSAT 32E (IS-32E)",
        "meta_object_id": "2017-007B",
        "meta_epoch": "2025-12-22T00:58:33.939840",
        "meta_mean_motion": 1.0026741,
        "meta_eccentricity": 7.53e-05,
        "meta_inclination": 0.0249,
        "meta_ra_of_asc_node": 67.4865,
        "meta_arg_of_pericenter": 319.1289,
        "meta_mean_anomaly": 35.7031,
        "meta_ephemeris_type": 0,
        "meta_classification_type": "U",
        "meta_norad_cat_id": 41945,
        "meta_element_set_no": 999,
        "meta_rev_at_epoch": 3244,
        "meta_bstar": 0,
        "meta_mean_motion_dot": -2.47e-06,
        "meta_mean_motion_ddot": 0,
        "tle_line1": "1 41945U 17007B   25356.04067060 -.00000247  00000+0  00000+0 0  9994",
        "tle_line2": "2 41945   0.0249  67.4865 0000753 319.1289  35.7031  1.00267410 32447"
      },
      "geometry": {
        "type": "Point",
        "coordinates": [
          -163.56394512309996,
          0.01664877462811345
        ]
      }
    },
    {
      "type": "Feature",
      "properties": {
        "norad_id": 42818,
        "name": "INTELSAT 35E (IS-35E)",
        "group": "intelsat",
        "lat": -0.01207023632492444,
        "lon": -154.90999013877382,
        "alt_km": 35784.79950697051,
        "timestamp": "2025-12-22T09:53:37.074274+00:00",
        "meta_object_name": "INTELSAT 35E (IS-35E)",
        "meta_object_id": "2017-041A",
        "meta_epoch": "2025-12-22T02:43:45.584256",
        "meta_mean_motion": 1.00267925,
        "meta_eccentricity": 0.0001922,
        "meta_inclination": 0.0217,
        "meta_ra_of_asc_node": 13.399,
        "meta_arg_of_pericenter": 264.6583,
        "meta_mean_anomaly": 179.3067,
        "meta_ephemeris_type": 0,
        "meta_classification_type": "U",
        "meta_norad_cat_id": 42818,
        "meta_element_set_no": 999,
        "meta_rev_at_epoch": 3104,
        "meta_bstar": 0,
        "meta_mean_motion_dot": 0,
        "meta_mean_motion_ddot": 0,
        "tle_line1": "1 42818U 17041A   25356.11372204  .00000000  00000+0  00000+0 0  9995",
        "tle_line2": "2 42818   0.0217  13.3990 0001922 264.6583 179.3067  1.00267925 31041"
      },
      "geometry": {
        "type": "Point",
        "coordinates": [
          -154.90999013877382,
          -0.01207023632492444
        ]
      }
    },
    {
      "type": "Feature",
      "properties": {
        "norad_id": 42950,
        "name": "INTELSAT 37E (IS-37E)",
        "group": "intelsat",
        "lat": -0.02898131770863296,
        "lon": -138.41775401720963,
        "alt_km": 35778.1046392382,
        "timestamp": "2025-12-22T09:53:37.074286+00:00",
        "meta_object_name": "INTELSAT 37E (IS-37E)",
        "meta_object_id": "2017-059A",
        "meta_epoch": "2025-12-22T01:05:48.246720",
        "meta_mean_motion": 1.00268299,
        "meta_eccentricity": 0.0002867,
        "meta_inclination": 0.0213,
        "meta_ra_of_asc_node": 3.2584,
        "meta_arg_of_pericenter": 260.6351,
        "meta_mean_anomaly": 185.4083,
        "meta_ephemeris_type": 0,
        "meta_classification_type": "U",
        "meta_norad_cat_id": 42950,
        "meta_element_set_no": 999,
        "meta_rev_at_epoch": 3029,
        "meta_bstar": 0,
        "meta_mean_motion_dot": 0,
        "meta_mean_motion_ddot": 0,
        "tle_line1": "1 42950U 17059A   25356.04569730  .00000000  00000+0  00000+0 0  9995",
        "tle_line2": "2 42950   0.0213   3.2584 0002867 260.6351 185.4083  1.00268299 30296"
      },
      "geometry": {
        "type": "Point",
        "coordinates": [
          -138.41775401720963,
          -0.02898131770863296
        ]
      }
    },
    {
      "type": "Feature",
      "properties": {
        "norad_id": 43632,
        "name": "AZERSPACE 2 (IS-38)",
        "group": "intelsat",
        "lat": -0.040739619616467854,
        "lon": -75.26994741657381,
        "alt_km": 35781.78427198172,
        "timestamp": "2025-12-22T09:53:37.074298+00:00",
        "meta_object_name": "AZERSPACE 2 (IS-38)",
        "meta_object_id": "2018-074A",
        "meta_epoch": "2025-12-22T03:06:28.410336",
        "meta_mean_motion": 1.00270026,
        "meta_eccentricity": 0.0001175,
        "meta_inclination": 0.0187,
        "meta_ra_of_asc_node": 348.1932,
        "meta_arg_of_pericenter": 279.5458,
        "meta_mean_anomaly": 274.9316,
        "meta_ephemeris_type": 0,
        "meta_classification_type": "U",
        "meta_norad_cat_id": 43632,
        "meta_element_set_no": 999,
        "meta_rev_at_epoch": 2667,
        "meta_bstar": 0,
        "meta_mean_motion_dot": 1.59e-06,
        "meta_mean_motion_ddot": 0,
        "tle_line1": "1 43632U 18074A   25356.12949549  .00000159  00000+0  00000+0 0  9995",
        "tle_line2": "2 43632   0.0187 348.1932 0001175 279.5458 274.9316  1.00270026 26671"
      },
      "geometry": {
        "type": "Point",
        "coordinates": [
          -75.26994741657381,
          -0.040739619616467854
        ]
      }
    },
    {
      "type": "Feature",
      "properties": {
        "norad_id": 43633,
        "name": "HORIZONS-3E",
        "group": "intelsat",
        "lat": -0.006795306290755122,
        "lon": 48.60253110453241,
        "alt_km": 35786.85141056387,
        "timestamp": "2025-12-22T09:53:37.074309+00:00",
        "meta_object_name": "HORIZONS-3E",
        "meta_object_id": "2018-074B",
        "meta_epoch": "2025-12-22T02:33:38.529216",
        "meta_mean_motion": 1.00270031,
        "meta_eccentricity": 5.52e-05,
        "meta_inclination": 0.01,
        "meta_ra_of_asc_node": 217.5508,
        "meta_arg_of_pericenter": 94.3369,
        "meta_mean_anomaly": 346.4228,
        "meta_ephemeris_type": 0,
        "meta_classification_type": "U",
        "meta_norad_cat_id": 43633,
        "meta_element_set_no": 999,
        "meta_rev_at_epoch": 2656,
        "meta_bstar": 0,
        "meta_mean_motion_dot": 0,
        "meta_mean_motion_ddot": 0,
        "tle_line1": "1 43633U 18074B   25356.10669594  .00000000  00000+0  00000+0 0  9998",
        "tle_line2": "2 43633   0.0100 217.5508 0000552  94.3369 346.4228  1.00270031 26568"
      },
      "geometry": {
        "type": "Point",
        "coordinates": [
          48.60253110453241,
          -0.006795306290755122
        ]
      }
    }
  ]
}